#dP2023 11 20 12  0  0.00000000      96 __u+U IGS20 EXT  IAC
## 2289 129600.00000000   900.00000000 60268 0.5000000000000
+  118   C06C07C08C09C10C11C12C13C14C16C19C20C21C22C23C24C25
+        C26C27C28C29C30C32C33C34C35C36C37C38C39C40C41C42C43
+        C44C45C46E02E03E04E05E07E08E09E10E11E12E13E15E19E21
+        E24E25E26E27E30E31E33E34E36G01G02G03G04G05G06G07G08
+        G09G10G11G12G13G14G15G16G17G18G19G20G21G22G23G24G25
+        G26G27G28G29G30G31G32J02J03J04R01R02R03R04R05R07R08
+        R09R11R12R13R14R15R16R17R18R19R20R21R22R24R25R26  0
++         8  8 10  9 10  8  8 13 10  9  8  9  8  9  8  8  9
++         8  8  9  8  8  8  9  7  7  9 10  9 10 10  9  8  8
++         8  9  8  8  8  7  8  7  8  8  7  7  7  7  7  7  8
++         8  7  7  8  8  9  8  7  8  7  7  7  8  8  8  8  8
++         8  7  8  7  8  9  8  7  8  7  8  8  7  8  8  7  8
++         7  8  8  8  8  7  7 11 11 10  8  8  7  7  8  9  8
++         7  9  9 10  8  9  7  7  8  7  8  8  8  8  8  7  0
%c M  cc GPS ccc cccc cccc cccc cccc ccccc ccccc ccccc ccccc
%c cc cc ccc ccc cccc cccc cccc cccc ccccc ccccc ccccc ccccc
%f  0.0000000  0.000000000  0.00000000000  0.000000000000000
%f  0.0000000  0.000000000  0.00000000000  0.000000000000000
%i    0    0    0    0      0      0      0      0         0
%i    0    0    0    0      0      0      0      0         0
/* IAC                                ULTRA-RAPID PREDICTION
/* S/V CLOCKS ARE ALIGNED TO GNSS TIME                      
/* G:C1WC2W R:C1PC2P E:C1XC5X C:C2IC6I J:C1CC2S             
/* PCV:IGS20_2287 OL/AL:FES2004  NONE     YN ORB:CoN CLK:CoN
*  2023 11 21  3 15  0.00000000
PC06  -1557.797285  34840.484952  23920.208440     32.996754
PC07 -13810.940069  26755.699558 -29491.216849   -351.279598
PC08 -16581.297644  37622.047601   8833.642295    228.245197
PC09   4899.696159  39009.743107  16437.781345   -115.985393
PC10  -4222.956634  27477.361220 -31434.688093    -24.645965
PC11  -2444.194555 -20877.617795  18442.425679    266.738655
PC12  13996.161815  -7439.614449  23013.995534    851.878626
PC13 -11177.900630  37977.699054  14241.994260    385.472120
PC14   7045.430068 -16706.980123 -21191.413002    825.150087
PC16  -3981.007238  32774.879076  26655.537662   -185.990247
PC19   3880.217765  15164.423113  23119.654492   -965.670019
PC20 -15367.953198  15853.037073  17083.166294     98.515300
PC21  27022.608094  -6933.872824   -112.743064   -969.805439
PC22  21999.978772   5726.212017  16165.165704   -217.074568
PC23 -12220.661759 -13286.766544  21281.704360   -817.563212
PC24  12320.753539 -23925.813829  -7460.008080    616.713309
PC25  -1106.861157 -25881.721303  10393.040849    260.350518
PC26  17213.301691  -8974.172145 -20079.817079   -209.150511
PC27 -19581.148127   -362.657259 -19891.078229    231.076265
PC28 -22029.434385 -15369.597914  -7564.817487    174.463351
PC29  11640.864045  22552.471009 -11601.554195    204.134315
PC30  -6523.064267  15458.450940 -22303.745531     -8.761480
PC32 -26992.917421   7091.319860     13.271186   -536.297326
PC33  -3875.255346 -15187.880334 -23090.783192   -944.042831
PC34   5202.474413 -16458.238156  21917.164383    307.918518
PC35  22634.469652  14461.980811   7625.884275    498.246180
PC36   -120.358454  26173.523871  -9641.710367   -125.576200
PC37 -17403.300845   7777.582469  20377.389119   -894.233802
PC38 -20070.965087  36973.026263    446.056731    119.044226
PC39  -5642.893401  29931.556052  29305.326600     -5.753273
PC40 -19637.323989  20125.619695 -31482.967993    -44.794568
PC41 -21511.348860  -6128.109122 -16641.653030   -871.514025
PC42  16755.832698 -15546.206508 -15960.286473   -495.232161
PC43 -10804.079089 -22584.967145  12302.679821     49.111621
PC44  19782.723502   -251.982009  19682.976803    299.113480
PC45  12399.223735  12659.721286 -21557.393223    -48.016663
PC46 -11728.685471  24463.970162   6426.499154   -101.384771
PE02   5619.138963  16752.880579 -23747.499687     80.168045
PE03  17378.023376  17734.090094  16099.454231    -74.853695
PE04 -28332.030789  -8441.711467   1443.979143   -262.237535
PE05  -3561.945549  16685.393762  24184.130374   4692.909872
PE07  22901.401814  -5557.546570 -17912.145294    -88.901640
PE08  28249.034598   8786.319392   -909.025383   -180.192044
PE09 -22967.013802   5369.482165  17883.975912   -235.113731
PE10 -16185.450577    301.536563 -24782.140346   -580.438070
PE11 -13039.017827  12356.201678 -23531.101713   3220.542114
PE12 -16670.126626 -10490.886785 -22089.377360   -785.775631
PE13  13257.355014 -11577.359631  23807.703111    -19.608101
PE15  16584.201517  11030.191367  21907.281602    -70.522498
PE19 -15049.937032 -18184.885826 -17856.091720  -1172.932299
PE21  12418.111294 -23229.511054  13510.292043   -565.140121
PE24 -24240.995834  16040.068759   5504.026215   -443.055557
PE25 -12733.253056  23223.779499 -13202.388118     -3.121147
PE26   1881.100616 -27376.733299  11118.655322    286.994566
PE27  24082.485491 -16466.629417  -5051.315933   -205.037140
PE30  21291.561361    333.907955 -20577.734609   -678.924082
PE31 -21415.968508     61.044634  20435.943192    -10.361935
PE33  -9822.699603 -27131.899323  -6620.759020      2.752769
PE34  10198.607305  26828.931889   7206.726684    -79.084851
PE36  -2224.971648  27074.288277 -11749.520712   -146.905739
PG01  14154.301346  -2668.456418  21969.500893    163.243639
PG02  16203.491733   3160.474149  21354.270066   -526.199388
PG03  22126.537103 -10185.622228  10309.481825     -0.159959
PG04  23139.351346   -985.263421 -13110.010669    218.557899
PG05 -18033.257242  -1380.263987 -19662.468492   -151.168817
PG06  -6124.439507 -25708.302084  -1991.444683    500.376219
PG07   7069.190064 -20054.922500 -15132.738164      8.059868
PG08  25978.995749   4578.209142   4562.532611   -153.098301
PG09  14947.145153  -9877.788871 -19716.025376      3.216310
PG10  -5275.965145  19737.259172  16977.470754    -62.211370
PG11 -11956.696834 -19925.780684 -12888.151069   -468.856579
PG12 -22719.632194   7616.346958  11100.292204   -449.215539
PG13 -22580.379075 -13874.331315  -3251.937201    597.499195
PG14   8999.498630 -20582.784343  14055.767646    249.108387
PG15 -26201.904683  -1583.498716   4255.513690     99.184419
PG16  14139.386286   8051.585971 -21389.164785   -418.415732
PG17    149.257934 -15931.180440  21667.890739    723.014242
PG18  -6140.378553  21319.037586 -14451.070752   -484.979143
PG19  -9802.351681 -17583.659531  17309.968155    401.764502
PG20  -9427.643850 -12586.305729 -21372.463967    400.583714
PG21  16743.132614   7508.952519  20021.146209    143.719696
PG22   2900.104321 -18660.387449  19236.105494     80.116840
PG23 -15680.893797  20370.924550   6290.309367    102.430107
PG24 -16421.450290  -2192.262876  20434.347126   -376.057556
PG25 -19784.688911  17478.320703    424.337827    478.283311
PG26   6610.578666  15257.328260 -20785.257762    215.187515
PG27  21880.279235  13256.633108  -8164.869428    -72.775821
PG28   5991.161710  25876.836105     94.785956    -50.925693
PG29 -16035.539928   7768.369893 -19773.370844   -610.169494
PG30     59.642816 -25536.977939  -6663.160486   -466.034615
PG31  10254.378651  22738.063275  -8696.177387   -225.927808
PG32   5161.687000  16638.133375  20290.203860   -588.096506
PJ02 -35678.190605  22080.404939     46.143419     -0.235954
PJ03 -19598.145161  24388.013692 -23643.008623     -8.973058
PJ04 -28315.376944  29876.855927  15417.492896     72.718109
PR01 -23032.344437  -2881.042656 -10586.811848     70.305129
PR02 -23929.885502   4815.364165   7314.270175    -22.340658
PR03 -10956.671003  10437.798978  20554.641534     89.429466
PR04   7536.240483   9917.892266  22286.703567    211.951429
PR05  22111.288667   4329.589323  11995.951425    122.554644
PR07  10249.672549 -10509.053130 -20842.211363     69.606093
PR08  -7783.364844  -9911.138928 -22116.834811    -73.352169
PR09  14718.115057 -13539.528318 -15769.008116    154.371899
PR11   1614.867731 -20353.684258  15288.349665   -214.720429
PR12 -10090.722682  -4467.347419  23018.852799     33.646862
PR13 -14634.131906  11523.384797  17408.176628    -41.530834
PR14 -10844.846482  23097.161795   -198.876941     25.571275
PR15   -814.647443  19625.724403 -16259.270504     84.606755
PR16   9821.106894   4662.040702 -23068.716194     20.817100
PR17      2.821939  16242.785131 -19636.347392     36.744883
PR18  10939.854950  22177.108415  -6329.841582    112.993519
PR19  15585.771058  18170.761860   8803.053753   -255.391600
PR20  11948.591767    373.167243  22554.146173   -103.885838
PR21   -451.396738 -16691.671284  19302.871442    -54.987876
PR22 -10663.467878 -22541.012067   5383.215848     94.528070
PR24 -12034.266580    919.696245 -22450.642646    -32.934864
PR25    876.649256 -16430.296381  19511.345467     -4.692948
PR26  -7218.705529  -9993.360332 -22317.426044    -15.819324
EOF
